DELTA 1 R/B             
1 20323U 89089B   25323.60024362  .00000444  00000+0  11845-3 0  9995
2 20323  97.0770 183.5030 0070687 109.9880 250.8949 14.50545395879771
ARIANE 40 R/B           
1 20443U 90005H   25323.59733110  .00000395  00000+0  13934-3 0  9990
2 20443  98.3277  22.4260 0010392 170.0092 190.1305 14.39773555876965
DELTA 2 R/B(1)          
1 20453U 90008B   25323.27954594  .00035711  00000+0  60685-3 0  9995
2 20453  35.6057 171.7665 0116381 324.1684  35.1284 15.43085546909005
COSMOS 2058             
1 20465U 90010A   25323.76814753  .00003329  00000+0  20189-3 0  9992
2 20465  82.4631 155.6303 0010300   2.2158 357.9115 15.10200844925640
SL-14 R/B               
1 20466U 90010B   25323.54201876  .00000529  00000+0  61388-4 0  9991
2 20466  82.5040  10.8330 0018527 305.4562  54.4923 14.83441354912154
SL-14 R/B               
1 20511U 90018B   25323.72402442  .00000519  00000+0  62239-4 0  9997
2 20511  82.5199 325.8796 0017967  93.7992 266.5277 14.82013917906291
HST                     
1 20580U 90037B   25323.66831854  .00007351  00000+0  25660-3 0  9997
2 20580  28.4689  69.4658 0001585 355.9508   4.1074 15.27607557756465
SL-16 R/B               
1 20625U 90046B   25323.84148819  .00000025  00000+0  37696-4 0  9993
2 20625  70.9956 168.6099 0012321 115.5902 244.6495 14.14990116832850
COSMOS 2084             
1 20663U 90055A   25323.77667411  .00002565  00000+0  19268-3 0  9996
2 20663  62.7914 350.2251 0035371 171.9000 188.2679 15.04823658919779
SL-6 R/B(2)             
1 20666U 90055D   25323.81389471  .00002564  00000+0  20434-3 0  9997
2 20666  62.7838 267.3026 0011030 289.5604  70.4303 15.02922707921678
SL-8 R/B                
1 20775U 90078B   25323.82571897  .00019577  00000+0  60494-3 0  9991
2 20775  82.9055 349.7983 0379146  22.7050 339.0442 14.84605576792976
SL-8 R/B                
1 21088U 91006B   25323.79095985  .00000102  00000+0  86972-4 0  9990
2 21088  82.9421 251.7818 0022289 346.7185  41.8143 13.77485929748944
