CCSDS_OMM_VERS = 2.0
CREATION_DATE  = 
ORIGINATOR     = 

OBJECT_NAME    = DELTA 1 R/B
OBJECT_ID      = 1989-089B
CENTER_NAME    = EARTH
REF_FRAME      = TEME
TIME_SYSTEM    = UTC
MEAN_ELEMENT_THEORY = SGP/SGP4

EPOCH          = 2025-11-19T14:24:21.048768
MEAN_MOTION    = 14.50545395
ECCENTRICITY   = .0070687
INCLINATION    = 97.0770
RA_OF_ASC_NODE = 183.5030
ARG_OF_PERICENTER = 109.9880
MEAN_ANOMALY   = 250.8949

EPHEMERIS_TYPE = 0
CLASSIFICATION_TYPE = U
NORAD_CAT_ID   = 20323
ELEMENT_SET_NO = 999
REV_AT_EPOCH   = 87977
BSTAR          = .11845E-3
MEAN_MOTION_DOT = .444E-5
MEAN_MOTION_DDOT = 0

CCSDS_OMM_VERS = 2.0
CREATION_DATE  = 
ORIGINATOR     = 

OBJECT_NAME    = ARIANE 40 R/B
OBJECT_ID      = 1990-005H
CENTER_NAME    = EARTH
REF_FRAME      = TEME
TIME_SYSTEM    = UTC
MEAN_ELEMENT_THEORY = SGP/SGP4

EPOCH          = 2025-11-19T14:20:09.407040
MEAN_MOTION    = 14.39773555
ECCENTRICITY   = .0010392
INCLINATION    = 98.3277
RA_OF_ASC_NODE = 22.4260
ARG_OF_PERICENTER = 170.0092
MEAN_ANOMALY   = 190.1305

EPHEMERIS_TYPE = 0
CLASSIFICATION_TYPE = U
NORAD_CAT_ID   = 20443
ELEMENT_SET_NO = 999
REV_AT_EPOCH   = 87696
BSTAR          = .13934E-3
MEAN_MOTION_DOT = .395E-5
MEAN_MOTION_DDOT = 0

CCSDS_OMM_VERS = 2.0
CREATION_DATE  = 
ORIGINATOR     = 

OBJECT_NAME    = DELTA 2 R/B(1)
OBJECT_ID      = 1990-008B
CENTER_NAME    = EARTH
REF_FRAME      = TEME
TIME_SYSTEM    = UTC
MEAN_ELEMENT_THEORY = SGP/SGP4

EPOCH          = 2025-11-19T06:42:32.769216
MEAN_MOTION    = 15.43085546
ECCENTRICITY   = .01163815
INCLINATION    = 35.6057
RA_OF_ASC_NODE = 171.7665
ARG_OF_PERICENTER = 324.1684
MEAN_ANOMALY   = 35.1284

EPHEMERIS_TYPE = 0
CLASSIFICATION_TYPE = U
NORAD_CAT_ID   = 20453
ELEMENT_SET_NO = 999
REV_AT_EPOCH   = 90900
BSTAR          = .60685466E-3
MEAN_MOTION_DOT = .35711E-3
MEAN_MOTION_DDOT = 0

CCSDS_OMM_VERS = 2.0
CREATION_DATE  = 
ORIGINATOR     = 

OBJECT_NAME    = COSMOS 2058
OBJECT_ID      = 1990-010A
CENTER_NAME    = EARTH
REF_FRAME      = TEME
TIME_SYSTEM    = UTC
MEAN_ELEMENT_THEORY = SGP/SGP4

EPOCH          = 2025-11-19T18:26:07.946592
MEAN_MOTION    = 15.10200844
ECCENTRICITY   = .00103
INCLINATION    = 82.4631
RA_OF_ASC_NODE = 155.6303
ARG_OF_PERICENTER = 2.2158
MEAN_ANOMALY   = 357.9115

EPHEMERIS_TYPE = 0
CLASSIFICATION_TYPE = U
NORAD_CAT_ID   = 20465
ELEMENT_SET_NO = 999
REV_AT_EPOCH   = 92564
BSTAR          = .20189E-3
MEAN_MOTION_DOT = .3329E-4
MEAN_MOTION_DDOT = 0

CCSDS_OMM_VERS = 2.0
CREATION_DATE  = 
ORIGINATOR     = 

OBJECT_NAME    = SL-14 R/B
OBJECT_ID      = 1990-010B
CENTER_NAME    = EARTH
REF_FRAME      = TEME
TIME_SYSTEM    = UTC
MEAN_ELEMENT_THEORY = SGP/SGP4

EPOCH          = 2025-11-19T13:00:30.420864
MEAN_MOTION    = 14.83441354
ECCENTRICITY   = .0018527
INCLINATION    = 82.5040
RA_OF_ASC_NODE = 10.8330
ARG_OF_PERICENTER = 305.4562
MEAN_ANOMALY   = 54.4923

EPHEMERIS_TYPE = 0
CLASSIFICATION_TYPE = U
NORAD_CAT_ID   = 20466
ELEMENT_SET_NO = 999
REV_AT_EPOCH   = 91215
BSTAR          = .61388E-4
MEAN_MOTION_DOT = .529E-5
MEAN_MOTION_DDOT = 0

CCSDS_OMM_VERS = 2.0
CREATION_DATE  = 
ORIGINATOR     = 

OBJECT_NAME    = SL-14 R/B
OBJECT_ID      = 1990-018B
CENTER_NAME    = EARTH
REF_FRAME      = TEME
TIME_SYSTEM    = UTC
MEAN_ELEMENT_THEORY = SGP/SGP4

EPOCH          = 2025-11-19T17:22:35.709888
MEAN_MOTION    = 14.82013917
ECCENTRICITY   = .0017967
INCLINATION    = 82.5199
RA_OF_ASC_NODE = 325.8796
ARG_OF_PERICENTER = 93.7992
MEAN_ANOMALY   = 266.5277

EPHEMERIS_TYPE = 0
CLASSIFICATION_TYPE = U
NORAD_CAT_ID   = 20511
ELEMENT_SET_NO = 999
REV_AT_EPOCH   = 90629
BSTAR          = .62239E-4
MEAN_MOTION_DOT = .519E-5
MEAN_MOTION_DDOT = 0

CCSDS_OMM_VERS = 2.0
CREATION_DATE  = 
ORIGINATOR     = 

OBJECT_NAME    = HST
OBJECT_ID      = 1990-037B
CENTER_NAME    = EARTH
REF_FRAME      = TEME
TIME_SYSTEM    = UTC
MEAN_ELEMENT_THEORY = SGP/SGP4

EPOCH          = 2025-11-19T16:02:22.721856
MEAN_MOTION    = 15.27607557
ECCENTRICITY   = .0001585
INCLINATION    = 28.4689
RA_OF_ASC_NODE = 69.4658
ARG_OF_PERICENTER = 355.9508
MEAN_ANOMALY   = 4.1074

EPHEMERIS_TYPE = 0
CLASSIFICATION_TYPE = U
NORAD_CAT_ID   = 20580
ELEMENT_SET_NO = 999
REV_AT_EPOCH   = 75646
BSTAR          = .2566E-3
MEAN_MOTION_DOT = .7351E-4
MEAN_MOTION_DDOT = 0

CCSDS_OMM_VERS = 2.0
CREATION_DATE  = 
ORIGINATOR     = 

OBJECT_NAME    = SL-16 R/B
OBJECT_ID      = 1990-046B
CENTER_NAME    = EARTH
REF_FRAME      = TEME
TIME_SYSTEM    = UTC
MEAN_ELEMENT_THEORY = SGP/SGP4

EPOCH          = 2025-11-19T20:11:44.579616
MEAN_MOTION    = 14.14990116
ECCENTRICITY   = .0012321
INCLINATION    = 70.9956
RA_OF_ASC_NODE = 168.6099
ARG_OF_PERICENTER = 115.5902
MEAN_ANOMALY   = 244.6495

EPHEMERIS_TYPE = 0
CLASSIFICATION_TYPE = U
NORAD_CAT_ID   = 20625
ELEMENT_SET_NO = 999
REV_AT_EPOCH   = 83285
BSTAR          = .37696E-4
MEAN_MOTION_DOT = .25E-6
MEAN_MOTION_DDOT = 0

CCSDS_OMM_VERS = 2.0
CREATION_DATE  = 
ORIGINATOR     = 

OBJECT_NAME    = COSMOS 2084
OBJECT_ID      = 1990-055A
CENTER_NAME    = EARTH
REF_FRAME      = TEME
TIME_SYSTEM    = UTC
MEAN_ELEMENT_THEORY = SGP/SGP4

EPOCH          = 2025-11-19T18:38:24.643104
MEAN_MOTION    = 15.04823658
ECCENTRICITY   = .0035371
INCLINATION    = 62.7914
RA_OF_ASC_NODE = 350.2251
ARG_OF_PERICENTER = 171.9000
MEAN_ANOMALY   = 188.2679

EPHEMERIS_TYPE = 0
CLASSIFICATION_TYPE = U
NORAD_CAT_ID   = 20663
ELEMENT_SET_NO = 999
REV_AT_EPOCH   = 91977
BSTAR          = .19268E-3
MEAN_MOTION_DOT = .2565E-4
MEAN_MOTION_DDOT = 0

CCSDS_OMM_VERS = 2.0
CREATION_DATE  = 
ORIGINATOR     = 

OBJECT_NAME    = SL-6 R/B(2)
OBJECT_ID      = 1990-055D
CENTER_NAME    = EARTH
REF_FRAME      = TEME
TIME_SYSTEM    = UTC
MEAN_ELEMENT_THEORY = SGP/SGP4

EPOCH          = 2025-11-19T19:32:00.502944
MEAN_MOTION    = 15.02922707
ECCENTRICITY   = .001103
INCLINATION    = 62.7838
RA_OF_ASC_NODE = 267.3026
ARG_OF_PERICENTER = 289.5604
MEAN_ANOMALY   = 70.4303

EPHEMERIS_TYPE = 0
CLASSIFICATION_TYPE = U
NORAD_CAT_ID   = 20666
ELEMENT_SET_NO = 999
REV_AT_EPOCH   = 92167
BSTAR          = .20434E-3
MEAN_MOTION_DOT = .2564E-4
MEAN_MOTION_DDOT = 0

CCSDS_OMM_VERS = 2.0
CREATION_DATE  = 
ORIGINATOR     = 

OBJECT_NAME    = SL-8 R/B
OBJECT_ID      = 1990-078B
CENTER_NAME    = EARTH
REF_FRAME      = TEME
TIME_SYSTEM    = UTC
MEAN_ELEMENT_THEORY = SGP/SGP4

EPOCH          = 2025-11-19T19:49:02.119008
MEAN_MOTION    = 14.84605576
ECCENTRICITY   = .0379146
INCLINATION    = 82.9055
RA_OF_ASC_NODE = 349.7983
ARG_OF_PERICENTER = 22.7050
MEAN_ANOMALY   = 339.0442

EPHEMERIS_TYPE = 0
CLASSIFICATION_TYPE = U
NORAD_CAT_ID   = 20775
ELEMENT_SET_NO = 999
REV_AT_EPOCH   = 79297
BSTAR          = .60494E-3
MEAN_MOTION_DOT = .19577E-3
MEAN_MOTION_DDOT = 0

CCSDS_OMM_VERS = 2.0
CREATION_DATE  = 
ORIGINATOR     = 

OBJECT_NAME    = SL-8 R/B
OBJECT_ID      = 1991-006B
CENTER_NAME    = EARTH
REF_FRAME      = TEME
TIME_SYSTEM    = UTC
MEAN_ELEMENT_THEORY = SGP/SGP4

EPOCH          = 2025-11-19T18:58:58.931040
MEAN_MOTION    = 13.77485929
ECCENTRICITY   = .0022289
INCLINATION    = 82.9421
RA_OF_ASC_NODE = 251.7818
ARG_OF_PERICENTER = 346.7185
MEAN_ANOMALY   = 41.8143

EPHEMERIS_TYPE = 0
CLASSIFICATION_TYPE = U
NORAD_CAT_ID   = 21088
ELEMENT_SET_NO = 999
REV_AT_EPOCH   = 74894
BSTAR          = .86972E-4
MEAN_MOTION_DOT = .102E-5
MEAN_MOTION_DDOT = 0

